NORAD_CAT_ID,OBJECT_NAME,OBJECT_TYPE,EPOCH,MEAN_MOTION,ECCENTRICITY,INCLINATION,RA_OF_ASC_NODE,ARG_OF_PERICENTER,MEAN_ANOMALY,BSTAR,MEAN_MOTION_DOT,MEAN_MOTION_DDOT,TLE_LINE0,TLE_LINE1,TLE_LINE2,SEMIMAJOR_AXIS,PERIOD,APOGEE,PERIGEE,DECAYED
50201.0,STARLINK-3255,PAYLOAD,2022-04-10 06:00:02,15.14060353,0.0002054,53.2176,176.1636,36.7416,129.9112,-0.04212,-0.007217,0.0,0 STARLINK-3255,1 50201U 21125AX  22100.25002315 -.00721700  00000-0 -42120-1 0  9991,2 50201  53.2176 176.1636 0002054  36.7416 129.9112 15.14060353 20467,6901.97,95.108,525.252,522.4169999999998,0.0
50201.0,STARLINK-3255,PAYLOAD,2022-04-10 14:00:01,15.13549772,0.0001992,53.2174,174.6592,39.612,144.534,-0.042703,-0.00721229,0.0,0 STARLINK-3255,1 50201U 21125AX  22100.58334491 -.00721229  00000-0 -42703-1 0  9993,2 50201  53.2174 174.6592 0001992  39.6120 144.5340 15.13549772  3646,6903.522,95.141,526.762,524.012,0.0
50201.0,STARLINK-3255,PAYLOAD,2022-04-10 22:00:00,15.13041518,0.0001784,53.2174,173.1528,45.4015,155.6889,-0.043482,-0.00723731,0.0,0 STARLINK-3255,1 50201U 21125AX  22100.91667824 -.00723731  00000-0 -43482-1 0  9994,2 50201  53.2174 173.1528 0001784  45.4015 155.6889 15.13041518  3642,6905.068,95.173,528.165,525.701,0.0
50201.0,STARLINK-3255,PAYLOAD,2022-04-11 06:00:00,15.12530387,0.0002049,53.2176,171.6488,37.5042,179.9181,-0.043962,-0.00721475,0.0,0 STARLINK-3255,1 50201U 21125AX  22101.25001157 -.00721475  00000-0 -43962-1 0  9999,2 50201  53.2176 171.6488 0002049  37.5042 179.9181 15.12530387 20615,6906.623000000001,95.205,529.903,527.073,0.0
50201.0,STARLINK-3255,PAYLOAD,2022-04-11 14:00:01,15.1201895,0.0001935,53.2175,170.1477,41.8711,191.2696,-0.04446,-0.00719396,0.0,0 STARLINK-3255,1 50201U 21125AX  22101.58334491 -.00719396  00000-0 -44460-1 0  9998,2 50201  53.2175 170.1477 0001935  41.8711 191.2696 15.12018950  3649,6908.181,95.237,531.382,528.7090000000002,0.0
50201.0,STARLINK-3255,PAYLOAD,2022-04-11 22:00:00,15.1151163,0.0001746,53.2175,168.6447,46.3586,201.8878,-0.045388,-0.00723729,0.0,0 STARLINK-3255,1 50201U 21125AX  22101.91667824 -.00723729  00000-0 -45388-1 0  9999,2 50201  53.2175 168.6447 0001746  46.3586 201.8878 15.11511630  3639,6909.726,95.269,532.798,530.385,0.0
50201.0,STARLINK-3255,PAYLOAD,2022-04-12 06:00:02,15.11000642,0.0001969,53.2176,167.1444,37.8567,224.9461,-0.045901,-0.00721727,0.0,0 STARLINK-3255,1 50201U 21125AX  22102.25002315 -.00721727  00000-0 -45901-1 0  9992,2 50201  53.2176 167.1444 0001969  37.8567 224.9461 15.11000642 20765,6911.284000000002,95.301,534.51,531.788,0.0
50201.0,STARLINK-3255,PAYLOAD,2022-04-12 14:00:01,15.104888199999998,0.000188,53.2175,165.6469,41.2982,235.3217,-0.046358,-0.00718813,0.0,0 STARLINK-3255,1 50201U 21125AX  22102.58334491 -.00718813  00000-0 -46358-1 0  9990,2 50201  53.2175 165.6469 0001880  41.2982 235.3217 15.10488820  3657,6912.845,95.333,536.01,533.411,0.0
50201.0,STARLINK-3255,PAYLOAD,2022-04-12 22:00:00,15.09902714,0.0001749,53.218,164.1459,38.1527,251.7737,-0.039637,-0.00611296,0.0,0 STARLINK-3255,1 50201U 21125AX  22102.91667824 -.00611296  00000-0 -39637-1 0  9995,2 50201  53.2180 164.1459 0001749  38.1527 251.7737 15.09902714  3605,6914.634,95.37,537.7080000000002,535.29,0.0
50201.0,STARLINK-3255,PAYLOAD,2022-04-13 14:00:03,15.08922368,0.0001745,53.218,161.1518,33.2444,281.5211,-0.015396,-0.00237866,0.0,0 STARLINK-3255,1 50201U 21125AX  22103.58336806 -.00237866  00000-0 -15396-1 0  9995,2 50201  53.2180 161.1518 0001745  33.2444 281.5211 15.08922368 20960,6917.629,95.432,540.701,538.2869999999998,0.0
50201.0,STARLINK-3255,PAYLOAD,2022-04-13 22:00:00,15.08823611,0.0001635,53.2177,159.6564,45.3799,280.8227,0.001427,0.00022485,0.0,0 STARLINK-3255,1 50201U 21125AX  22103.91667824  .00022485  00000-0  14270-2 0  9997,2 50201  53.2177 159.6564 0001635  45.3799 280.8227 15.08823611 21011,6917.93,95.439,540.927,538.664,0.0
50201.0,STARLINK-3255,PAYLOAD,2022-04-14 08:00:01,15.0889658,0.0001776999999999,53.2186,157.7784,43.8657,26.9554,-0.0051273,-0.00081098,0.0,0 STARLINK-3255,1 50201U 21125AX  22104.33334491 -.00081098  00000-0 -51273-2 0  9996,2 50201  53.2186 157.7784 0001777  43.8657  26.9554 15.08896580 21081,6917.706999999999,95.434,540.802,538.3430000000002,0.0
50201.0,STARLINK-3255,PAYLOAD,2022-04-14 14:00:01,15.08845849,0.0001928,53.2183,156.6569,42.881,306.6732,-0.0044252,-0.00070043,0.0,0 STARLINK-3255,1 50201U 21125AX  22104.58334491 -.00070043  00000-0 -44252-2 0  9990,2 50201  53.2183 156.6569 0001928  42.8810 306.6732 15.08845849  3634,6917.863,95.437,541.061,538.394,0.0
50201.0,STARLINK-3255,PAYLOAD,2022-04-14 22:00:00,15.08769813,0.0001821,53.218,155.1589,48.6725,312.4735,0.001248,0.00019592,0.0,0 STARLINK-3255,1 50201U 21125AX  22104.91667824  .00019592  00000-0  12480-2 0  9994,2 50201  53.2180 155.1589 0001821  48.6725 312.4735 15.08769813  3632,6918.095,95.442,541.22,538.7,0.0
50201.0,STARLINK-3255,PAYLOAD,2022-04-15 06:00:00,15.0880231,0.0001874,53.218,153.6632,49.7611,322.8989,0.0028699,0.00045636,0.0,0 STARLINK-3255,1 50201U 21125AX  22105.25001157  .00045636  00000-0  28699-2 0  9990,2 50201  53.2180 153.6632 0001874  49.7611 322.8989 15.08802310 21218,6917.996,95.44,541.1569999999998,538.564,0.0
50201.0,STARLINK-3255,PAYLOAD,2022-04-15 12:18:13,15.09012454,0.0001395,53.2196,152.4807,56.6925,303.4201,-0.0023601,-0.00037829,0.0,0 STARLINK-3255,1 50201U 21125AX  22105.51265513 -.00037829  00000-0 -23601-2 0  9992,2 50201  53.2196 152.4807 0001395  56.6925 303.4201 15.09012454 21731,6917.353,95.427,540.183,538.253,0.0
50201.0,STARLINK-3255,PAYLOAD,2022-04-15 22:00:00,15.08856557,0.0001851,53.2174,150.6699,48.0534,347.7987,0.00077948,0.00012145,0.0,0 STARLINK-3255,1 50201U 21125AX  22105.91667824  .00012145  00000-0  77948-3 0  9993,2 50201  53.2174 150.6699 0001851  48.0534 347.7987 15.08856557  3612,6917.83,95.437,540.975,538.414,0.0
50201.0,STARLINK-3255,PAYLOAD,2022-04-16 06:00:00,15.08883764,0.0001957,53.2174,149.1741,49.2603,358.2032,-0.0054543,-0.00086161,0.0,0 STARLINK-3255,1 50201U 21125AX  22106.25001157 -.00086161  00000-0 -54543-2 0  9998,2 50201  53.2174 149.1741 0001957  49.2603 358.2032 15.08883764 21371,6917.746999999999,95.435,540.965,538.258,0.0
50201.0,STARLINK-3255,PAYLOAD,2022-04-16 14:00:01,15.08794989,0.0002055,53.2172,147.6789,42.9844,16.0884,0.002837,0.00045097,0.0,0 STARLINK-3255,1 50201U 21125AX  22106.58334491  .00045097  00000-0  28370-2 0  9994,2 50201  53.2172 147.6789 0002055  42.9844  16.0884 15.08794989  3623,6918.018,95.44,541.305,538.461,0.0
50201.0,STARLINK-3255,PAYLOAD,2022-04-16 22:00:01,15.08802171,0.00019,53.2172,146.1806,47.51300000000001,23.1899,0.0019834,0.00031386,0.0,0 STARLINK-3255,1 50201U 21125AX  22106.91668981  .00031386  00000-0  19834-2 0  9996,2 50201  53.2172 146.1806 0001900  47.5130  23.1899 15.08802171 21475,6917.996,95.44,541.175,538.547,0.0
50201.0,STARLINK-3255,PAYLOAD,2022-04-17 14:00:01,15.08813004,0.0002156,53.2171,143.1896,43.3101,50.4769,0.0026365,0.00041891,0.0,0 STARLINK-3255,1 50201U 21125AX  22107.58334491  .00041891  00000-0  26365-2 0  9995,2 50201  53.2171 143.1896 0002156  43.3101  50.4769 15.08813004  3595,6917.9630000000025,95.439,541.319,538.336,0.0
50201.0,STARLINK-3255,PAYLOAD,2022-04-17 22:00:00,15.08817053,0.0001988,53.2174,141.6913,47.9341,57.4413,0.002382,0.00037802,0.0,0 STARLINK-3255,1 50201U 21125AX  22107.91667824  .00037802  00000-0  23820-2 0  9991,2 50201  53.2174 141.6913 0001988  47.9341  57.4413 15.08817053  3589,6917.951,95.439,541.191,538.44,0.0
50201.0,STARLINK-3255,PAYLOAD,2022-04-18 08:00:01,15.08849392,0.0002187,53.2175,139.8221,46.8697,162.9912,-0.00081746,-0.00013278,0.0,0 STARLINK-3255,1 50201U 21125AX  22108.33334491 -.00013278  00000-0 -81746-3 0  9994,2 50201  53.2175 139.8221 0002187  46.8697 162.9912 15.08849392 21683,6917.852,95.437,541.23,538.2040000000002,0.0
50201.0,STARLINK-3255,PAYLOAD,2022-04-18 14:00:01,15.08832317,0.000224,53.2174,138.7002,44.0247,84.5354,0.0020805,0.00032972,0.0,0 STARLINK-3255,1 50201U 21125AX  22108.58334491  .00032972  00000-0  20805-2 0  9999,2 50201  53.2174 138.7002 0002240  44.0247  84.5354 15.08832317  3620,6917.904,95.438,541.318,538.219,0.0
50201.0,STARLINK-3255,PAYLOAD,2022-04-18 22:00:00,15.08834449,0.0002036,53.2178,137.202,48.5974,91.5737,0.0022474,0.00035656,0.0,0 STARLINK-3255,1 50201U 21125AX  22108.91667824  .00035656  00000-0  22474-2 0  9991,2 50201  53.2178 137.2020 0002036  48.5974  91.5737 15.08834449  3583,6917.897,95.438,541.1709999999998,538.354,0.0
50201.0,STARLINK-3255,PAYLOAD,2022-04-19 06:00:00,15.08869635,0.0002112,53.218,135.7065,47.5314,104.2433,-0.0037182,-0.00059028,0.0,0 STARLINK-3255,1 50201U 21125AX  22109.25001157 -.00059028  00000-0 -37182-2 0  9993,2 50201  53.2180 135.7065 0002112  47.5314 104.2433 15.08869635 21827,6917.79,95.436,541.116,538.194,0.0
50201.0,STARLINK-3255,PAYLOAD,2022-04-19 14:00:01,15.088271100000002,0.0002196,53.2177,134.2109,43.0257,120.3518,0.0015037,0.00023716,0.0,0 STARLINK-3255,1 50201U 21125AX  22109.58334491  .00023716  00000-0  15037-2 0  9997,2 50201  53.2177 134.2109 0002196  43.0257 120.3518 15.08827110  3628,6917.92,95.438,541.304,538.266,0.0
50201.0,STARLINK-3255,PAYLOAD,2022-04-19 22:00:00,15.08819678,0.0001989,53.2179,132.7128,48.0362,126.9395,0.0026653,0.00042362,0.0,0 STARLINK-3255,1 50201U 21125AX  22109.91667824  .00042362  00000-0  26653-2 0  9997,2 50201  53.2179 132.7128 0001989  48.0362 126.9395 15.08819678 21923,6917.943,95.439,541.183,538.432,0.0
50201.0,STARLINK-3255,PAYLOAD,2022-04-20 14:00:01,15.08851292,0.0002175,53.2179,129.7218,44.0248,154.1379,-0.0005302,-8.719e-05,0.0,0 STARLINK-3255,1 50201U 21125AX  22110.58334491 -.00008719  00000-0 -53020-3 0  9992,2 50201  53.2179 129.7218 0002175  44.0248 154.1379 15.08851292 22021,6917.846,95.437,541.216,538.206,0.0
